QIANFAN-25              
1 61558U 24185G   25354.19589773  .00000296  00000+0  17229-3 0  9993
2 61558  88.9804  77.3479 0007320 292.8563  67.1845 14.05914088 70556
QIANFAN-26              
1 61559U 24185H   25354.15613043  .00000235  00000+0  22174-3 0  9996
2 61559  88.9811  78.9523 0005143   9.7302 350.3963 13.77815833 69696
QIANFAN-27              
1 61560U 24185J   25354.17970095  .00000458  00000+0  18111-3 0  9996
2 61560  88.9803  76.0733 0005641 259.7965 100.2593 14.27342020 71228
QIANFAN-28              
1 61561U 24185K   25354.15821503  .00000678  00000+0  26750-3 0  9996
2 61561  88.9822  76.0796 0005122 257.7787 102.2834 14.28049171 71236
QIANFAN-29              
1 61562U 24185L   25354.07123635  .00000154  00000+0  21941-3 0  9995
2 61562  88.9788  80.5550 0010626  39.9944 320.1988 13.51014052 68788
QIANFAN-30              
1 61563U 24185M   25354.19986637  .00000083  00000+0  11156-3 0  9996
2 61563  88.9809  80.0700 0007807  29.3107 330.8480 13.49989300 69078
QIANFAN-31              
1 61564U 24185N   25354.19817870  .00000195  00000+0  25303-3 0  9992
2 61564  88.9792  79.8603 0006994  24.6752 335.4736 13.57969306 69177
QIANFAN-32              
1 61565U 24185P   25354.16420003  .00000099  00000+0  13524-3 0  9993
2 61565  88.9851  80.2100 0010424  51.4003 308.8080 13.50736714 69042
